2026-05-17 06:58:07 | DEBUG | strands_evaluation.instrumentation.agent_plugins | Model response #1 [role=assistant block=1 tool_use] plan_ideal({"plan_text": "1) Download quiet and storm CSVs for 58214 (May periods) from the preloaded S3 URIs.\n2) Load each CSV; filter rows to May 1-4 2024 (quiet) and May 10-13 2024 (storm).\n3) From each row’s mean motion (revs/day or rad/min per columns), compute semi-major axis via Kepler: a=(mu/n^2)^(1/3) with proper unit conversion.\n4) For endpoint records in each period (exclude invalid/missing), compute km/day change between consecutive endpoints (as provided by dataset’s endpoint columns/timestamps).\n5) Average the computed daily rates for quiet and storm, then round to required precision and submit ordered pair."}) [toolUseId=call_LwQ9cBRCeLDqccNQV8GlgSqx]
2026-05-17 06:58:07 | INFO | strands_evaluation.instrumentation.agent_plugins | Executing: plan_ideal({"plan_text": "1) Download quiet and storm CSVs for 58214 (May periods) from the preloaded S3 URIs.\n2) Load each CSV; filter rows to May 1-4 2024 (quiet) and May 10-13 2024 (storm).\n3) From each row’s mean motion (revs/day or rad/min per columns), compute semi-major axis via Kepler: a=(mu/n^2)^(1/3) with proper unit conversion.\n4) For endpoint records in each period (exclude invalid/missing), compute km/day change between consecutive endpoints (as provided by dataset’s endpoint columns/timestamps).\n5) Average the computed daily rates for quiet and storm, then round to required precision and submit ordered pair."})
2026-05-17 06:58:07 | DEBUG | strands_evaluation.instrumentation.agent_plugins | Tool result: Ideal execution plan recorded.
2026-05-17 06:58:07 | INFO | strands_evaluation.instrumentation.agent_plugins | 
--- Turn 2 (elapsed: 1.6s) ---
2026-05-17 06:58:08 | DEBUG | strands_evaluation.instrumentation.agent_plugins | Model response #2 [stop_reason=tool_use]
2026-05-17 06:58:08 | DEBUG | strands_evaluation.instrumentation.agent_plugins | Model response #2 [role=assistant block=1 tool_use] peek_file({"s3_uri": "datagov/kramabench-astronomy-easy-6/files/space-track/58214_quiet.csv"}) [toolUseId=call_6he4kjdVZmpdYA0Bgp4kj8qA]
2026-05-17 06:58:08 | INFO | strands_evaluation.instrumentation.agent_plugins | Executing: peek_file({"s3_uri": "datagov/kramabench-astronomy-easy-6/files/space-track/58214_quiet.csv"})
2026-05-17 06:58:09 | DEBUG | strands_evaluation.instrumentation.agent_plugins | Tool result: {"dataset_id": "kramabench-astronomy-easy-6", "file_path": "files/space-track/58214_quiet.csv", "s3_uri": "s3://sana-kramabench/datagov/kramabench-astronomy-easy-6/files/space-track/58214_quiet.csv", "size_bytes": 5115, "family": "csv", "preview_text": "CCSDS_OMM_VERS,COMMENT,CREATION_DATE,ORIGINATOR,OBJECT_NAME,OBJECT_ID,CENTER_NAME,REF_FRAME,TIME_SYSTEM,MEAN_ELEMENT_THEORY,EPOCH,MEAN_MOTION,ECCENTRICITY,INCLINATION,RA_OF_ASC_NODE,ARG_OF_PERICENTER,MEAN_ANOMALY,EPHEMERIS_TYPE,CLASSIFICATION_TYPE,NORAD_CAT_ID,ELEMENT_SET_NO,REV_AT_EPOCH,BSTAR,MEAN_MOTION_DOT,MEAN_MOTION_DDOT,SEMIMAJOR_AXIS,PERIOD,APOAPSIS,PERIAPSIS,OBJECT_TYPE,RCS_SIZE,COUNTRY_CODE,LAUNCH_DATE,SITE,DECAY_DATE,FILE,GP_ID,TLE_LINE0,TLE_LINE1,TLE_LINE2\n\"2.0\",\"GENERATED VIA SPACE-TRACK.ORG API\",\"2024-05-01T20:24:06\",\"18 SPCS\",\"STARLINK-30805\",\"2023-170J\",\"EARTH\",\"TEME\",\"UTC\",\"SGP4\",\"2024-05-01T10:29:14.898336\",\"15.02550424\",\"0.00017220\",\"43.0038\",\"275.8684\",\"265.8547\",\"94.2099\",\"0\",\"U\",\"58214\",\"999\",\"2840\",\"0.00047506000000\",\"0.00006222\",\"0.0000000000000\",\"6937.172\",\"95.837\",\"560.232\",\"557.843\",\"PAYLOAD\",\"LARGE\",\"US\",\"2023-11-03\",\"AFETR\",\"\",\"4304190\",\"256232108\",\"0 STARLINK-30805\",\"1 58214U 23170J   24122.43697799  .00006222  00000-0  47506-3 0  9995\",\"2 58214  43.0038 275.8684 0001722 265.8547  94.2099 15.02550424 28404\"\n\"2.0\",\"GENERATED VIA SPACE-TRACK.ORG API\",\"2024-05-02T02:46:58\",\"18 SPCS\",\"STARLINK-30805\",\"2023-170J\",\"EARTH\",\"TEME\",\"UTC\",\"SGP4\",\"2024-05-01T16:52:09.772896\",\"15.02544581\",\"0.00014870\",\"43.0034\",\"274.4237\",\"269.1676\",\"90.8996\",\"0\",\"U\",\"58214\",\"999\",\"2844\",\"0.00027920000000\",\"0.00003571\",\"0.0000000000000\",\"6937.190\",\"95.837\",\"560.087\",\"558.024\",\"PAYLOAD\",\"LARGE\",\"US\",\"2023-11-03\",\"AFETR\",\"\",\"4304452\",\"256266706\",\"0 STARLINK-30805\",\"1 58214U 23170J   24122.70289089  .00003571  00000-0  27920-3 0  9996\",\"2 58214  43.0034 274.423...
2026-05-17 06:58:09 | INFO | strands_evaluation.instrumentation.agent_plugins | 
--- Turn 3 (elapsed: 2.9s) ---
2026-05-17 06:58:10 | DEBUG | strands_evaluation.instrumentation.agent_plugins | Model response #3 [stop_reason=tool_use]
2026-05-17 06:58:10 | DEBUG | strands_evaluation.instrumentation.agent_plugins | Model response #3 [role=assistant block=1 tool_use] peek_file({"s3_uri": "datagov/kramabench-astronomy-easy-6/files/space-track/58214_storm.csv"}) [toolUseId=call_Am2WEqF3nRfPG1bd7ChFCDNg]
2026-05-17 06:58:10 | INFO | strands_evaluation.instrumentation.agent_plugins | Executing: peek_file({"s3_uri": "datagov/kramabench-astronomy-easy-6/files/space-track/58214_storm.csv"})
2026-05-17 06:58:10 | DEBUG | strands_evaluation.instrumentation.agent_plugins | Tool result: {"dataset_id": "kramabench-astronomy-easy-6", "file_path": "files/space-track/58214_storm.csv", "s3_uri": "s3://sana-kramabench/datagov/kramabench-astronomy-easy-6/files/space-track/58214_storm.csv", "size_bytes": 8029, "family": "csv", "preview_text": "CCSDS_OMM_VERS,COMMENT,CREATION_DATE,ORIGINATOR,OBJECT_NAME,OBJECT_ID,CENTER_NAME,REF_FRAME,TIME_SYSTEM,MEAN_ELEMENT_THEORY,EPOCH,MEAN_MOTION,ECCENTRICITY,INCLINATION,RA_OF_ASC_NODE,ARG_OF_PERICENTER,MEAN_ANOMALY,EPHEMERIS_TYPE,CLASSIFICATION_TYPE,NORAD_CAT_ID,ELEMENT_SET_NO,REV_AT_EPOCH,BSTAR,MEAN_MOTION_DOT,MEAN_MOTION_DDOT,SEMIMAJOR_AXIS,PERIOD,APOAPSIS,PERIAPSIS,OBJECT_TYPE,RCS_SIZE,COUNTRY_CODE,LAUNCH_DATE,SITE,DECAY_DATE,FILE,GP_ID,TLE_LINE0,TLE_LINE1,TLE_LINE2\n\"2.0\",\"GENERATED VIA SPACE-TRACK.ORG API\",\"2024-05-10T17:44:02\",\"18 SPCS\",\"STARLINK-30805\",\"2023-170J\",\"EARTH\",\"TEME\",\"UTC\",\"SGP4\",\"2024-05-10T13:03:59.806080\",\"15.02537535\",\"0.00028990\",\"43.0080\",\"226.3847\",\"278.1214\",\"81.9299\",\"0\",\"U\",\"58214\",\"999\",\"2977\",\"-0.00026920000000\",\"-0.00003839\",\"0.0000000000000\",\"6937.212\",\"95.838\",\"561.088\",\"557.066\",\"PAYLOAD\",\"LARGE\",\"US\",\"2023-11-03\",\"AFETR\",\"\",\"4312738\",\"256888979\",\"0 STARLINK-30805\",\"1 58214U 23170J   24131.54444220 -.00003839  00000-0 -26920-3 0  9996\",\"2 58214  43.0080 226.3847 0002899 278.1214  81.9299 15.02537535 29771\"\n\"2.0\",\"GENERATED VIA SPACE-TRACK.ORG API\",\"2024-05-11T02:49:57\",\"18 SPCS\",\"STARLINK-30805\",\"2023-170J\",\"EARTH\",\"TEME\",\"UTC\",\"SGP4\",\"2024-05-10T16:15:27.229536\",\"15.02540313\",\"0.00014720\",\"43.0037\",\"225.6614\",\"276.8779\",\"83.1896\",\"0\",\"U\",\"58214\",\"999\",\"2979\",\"-0.00009585500000\",\"-0.00001498\",\"0.0000000000000\",\"6937.203\",\"95.838\",\"560.089\",\"558.047\",\"PAYLOAD\",\"LARGE\",\"US\",\"2023-11-03\",\"AFETR\",\"\",\"4313042\",\"256923769\",\"0 STARLINK-30805\",\"1 58214U 23170J   24131.67739849 -.00001498  00000-0 -95855-4 0  9997\",\"2 58214  43.0037 225...
2026-05-17 06:58:10 | INFO | strands_evaluation.instrumentation.agent_plugins | 
--- Turn 4 (elapsed: 3.9s) ---
2026-05-17 06:58:11 | DEBUG | strands_evaluation.instrumentation.agent_plugins | Model response #4 [stop_reason=tool_use]
2026-05-17 06:58:11 | DEBUG | strands_evaluation.instrumentation.agent_plugins | Model response #4 [role=assistant block=1 tool_use] download({"files": [{"s3_uri": "datagov/kramabench-astronomy-easy-6/files/space-track/58214_quiet.csv"}, {"s3_uri": "datagov/kramabench-astronomy-easy-6/files/space-track/58214_storm.csv"}]}) [toolUseId=call_63zkuGreoxgYQrmjWi2PlCGq]
2026-05-17 06:58:11 | INFO | strands_evaluation.instrumentation.agent_plugins | Executing: download({"files": [{"s3_uri": "datagov/kramabench-astronomy-easy-6/files/space-track/58214_quiet.csv"}, {"s3_uri": "datagov/kramabench-astronomy-easy-6/files/space-track/58214_storm.csv"}]})
